{"fetched_at":"2026-07-12T05:52:46.272Z","source":"https://celestrak.org/NORAD/elements/gp.php?NAME=BRO&FORMAT=JSON","constellation":"unseenlabs","records":[{"OBJECT_NAME":"BRO-1","OBJECT_ID":"2019-054A","EPOCH":"2026-07-11T21:24:39.343392","CLASSIFICATION_TYPE":"U","MEAN_MOTION":16.11311228,"ECCENTRICITY":0.0008707,"INCLINATION":44.9818,"RA_OF_ASC_NODE":139.369,"ARG_OF_PERICENTER":166.1621,"MEAN_ANOMALY":193.9533,"EPHEMERIS_TYPE":0,"NORAD_CAT_ID":44495,"ELEMENT_SET_NO":999,"REV_AT_EPOCH":38369,"BSTAR":0.0007352,"MEAN_MOTION_DOT":0.00787956,"MEAN_MOTION_DDOT":0.00035521},{"OBJECT_NAME":"BRO-5","OBJECT_ID":"2022-002CF","EPOCH":"2026-07-11T17:59:12.829920","CLASSIFICATION_TYPE":"U","MEAN_MOTION":15.48742659,"ECCENTRICITY":0.0005001,"INCLINATION":97.2993,"RA_OF_ASC_NODE":266.6571,"ARG_OF_PERICENTER":216.6723,"MEAN_ANOMALY":143.4186,"EPHEMERIS_TYPE":0,"NORAD_CAT_ID":51061,"ELEMENT_SET_NO":999,"REV_AT_EPOCH":25005,"BSTAR":0.00035826,"MEAN_MOTION_DOT":0.00019148,"MEAN_MOTION_DDOT":0},{"OBJECT_NAME":"BRO-6","OBJECT_ID":"2022-047AE","EPOCH":"2026-07-11T20:10:56.522208","CLASSIFICATION_TYPE":"U","MEAN_MOTION":15.52374796,"ECCENTRICITY":0.0002952,"INCLINATION":97.3395,"RA_OF_ASC_NODE":284.3994,"ARG_OF_PERICENTER":329.9683,"MEAN_ANOMALY":30.14,"EPHEMERIS_TYPE":0,"NORAD_CAT_ID":52422,"ELEMENT_SET_NO":999,"REV_AT_EPOCH":23497,"BSTAR":0.00042654,"MEAN_MOTION_DOT":0.00025959,"MEAN_MOTION_DDOT":0},{"OBJECT_NAME":"BRO-8","OBJECT_ID":"2023-001C","EPOCH":"2026-07-11T20:11:43.033056","CLASSIFICATION_TYPE":"U","MEAN_MOTION":15.50602608,"ECCENTRICITY":0.000522,"INCLINATION":97.3197,"RA_OF_ASC_NODE":258.4049,"ARG_OF_PERICENTER":51.8077,"MEAN_ANOMALY":308.3644,"EPHEMERIS_TYPE":0,"NORAD_CAT_ID":55011,"ELEMENT_SET_NO":999,"REV_AT_EPOCH":19602,"BSTAR":0.00038976,"MEAN_MOTION_DOT":0.00022258,"MEAN_MOTION_DDOT":0},{"OBJECT_NAME":"BRO-11","OBJECT_ID":"2023-174J","EPOCH":"2026-07-11T19:31:20.034048","CLASSIFICATION_TYPE":"U","MEAN_MOTION":15.27571673,"ECCENTRICITY":0.0011885,"INCLINATION":97.3903,"RA_OF_ASC_NODE":269.4335,"ARG_OF_PERICENTER":118.0044,"MEAN_ANOMALY":242.2399,"EPHEMERIS_TYPE":0,"NORAD_CAT_ID":58264,"ELEMENT_SET_NO":999,"REV_AT_EPOCH":14851,"BSTAR":0.000095058,"MEAN_MOTION_DOT":0.00002493,"MEAN_MOTION_DDOT":0},{"OBJECT_NAME":"BRO-13","OBJECT_ID":"2024-043K","EPOCH":"2026-07-11T19:55:17.951232","CLASSIFICATION_TYPE":"U","MEAN_MOTION":14.96645111,"ECCENTRICITY":0.0007608,"INCLINATION":97.8519,"RA_OF_ASC_NODE":323.931,"ARG_OF_PERICENTER":275.8465,"MEAN_ANOMALY":84.1889,"EPHEMERIS_TYPE":0,"NORAD_CAT_ID":59107,"ELEMENT_SET_NO":999,"REV_AT_EPOCH":12830,"BSTAR":0.000066915,"MEAN_MOTION_DOT":0.00000703,"MEAN_MOTION_DDOT":0},{"OBJECT_NAME":"BRO-12","OBJECT_ID":"2024-043L","EPOCH":"2026-07-11T18:07:39.056160","CLASSIFICATION_TYPE":"U","MEAN_MOTION":14.96889629,"ECCENTRICITY":0.0007095,"INCLINATION":97.8505,"RA_OF_ASC_NODE":324.0246,"ARG_OF_PERICENTER":270.8578,"MEAN_ANOMALY":89.183,"EPHEMERIS_TYPE":0,"NORAD_CAT_ID":59108,"ELEMENT_SET_NO":999,"REV_AT_EPOCH":12831,"BSTAR":0.000047842,"MEAN_MOTION_DOT":0.00000489,"MEAN_MOTION_DDOT":0},{"OBJECT_NAME":"BRO-14","OBJECT_ID":"2024-149CM","EPOCH":"2026-07-11T16:08:15.760896","CLASSIFICATION_TYPE":"U","MEAN_MOTION":14.96229545,"ECCENTRICITY":0.0006989,"INCLINATION":97.6861,"RA_OF_ASC_NODE":268.01,"ARG_OF_PERICENTER":27.4384,"MEAN_ANOMALY":332.7206,"EPHEMERIS_TYPE":0,"NORAD_CAT_ID":60551,"ELEMENT_SET_NO":999,"REV_AT_EPOCH":10365,"BSTAR":0.000055479,"MEAN_MOTION_DOT":0.00000569,"MEAN_MOTION_DDOT":0},{"OBJECT_NAME":"BRO-15","OBJECT_ID":"2024-149CP","EPOCH":"2026-07-09T10:45:19.005696","CLASSIFICATION_TYPE":"U","MEAN_MOTION":14.96220766,"ECCENTRICITY":0.00085255,"INCLINATION":97.6798,"RA_OF_ASC_NODE":265.407,"ARG_OF_PERICENTER":23.7668,"MEAN_ANOMALY":336.3946,"EPHEMERIS_TYPE":0,"NORAD_CAT_ID":60553,"ELEMENT_SET_NO":999,"REV_AT_EPOCH":10333,"BSTAR":0.000069493641,"MEAN_MOTION_DOT":0.00000727,"MEAN_MOTION_DDOT":0},{"OBJECT_NAME":"BRO-16","OBJECT_ID":"2025-009AX","EPOCH":"2026-07-11T18:23:14.646336","CLASSIFICATION_TYPE":"U","MEAN_MOTION":15.24113003,"ECCENTRICITY":0.0001854,"INCLINATION":97.4055,"RA_OF_ASC_NODE":272.9493,"ARG_OF_PERICENTER":160.5218,"MEAN_ANOMALY":199.609,"EPHEMERIS_TYPE":0,"NORAD_CAT_ID":62654,"ELEMENT_SET_NO":999,"REV_AT_EPOCH":8254,"BSTAR":0.000093108,"MEAN_MOTION_DOT":0.00002191,"MEAN_MOTION_DDOT":0},{"OBJECT_NAME":"BRO-18","OBJECT_ID":"2025-135Y","EPOCH":"2026-07-11T20:08:04.976736","CLASSIFICATION_TYPE":"U","MEAN_MOTION":15.22156983,"ECCENTRICITY":0.0002334,"INCLINATION":97.4649,"RA_OF_ASC_NODE":307.6815,"ARG_OF_PERICENTER":120.3367,"MEAN_ANOMALY":239.81,"EPHEMERIS_TYPE":0,"NORAD_CAT_ID":64550,"ELEMENT_SET_NO":999,"REV_AT_EPOCH":5862,"BSTAR":0.000096218,"MEAN_MOTION_DOT":0.00002136,"MEAN_MOTION_DDOT":0},{"OBJECT_NAME":"BRO-17","OBJECT_ID":"2025-276G","EPOCH":"2026-07-11T16:52:02.273376","CLASSIFICATION_TYPE":"U","MEAN_MOTION":15.1814184,"ECCENTRICITY":0.000506,"INCLINATION":97.4188,"RA_OF_ASC_NODE":265.3383,"ARG_OF_PERICENTER":275.3217,"MEAN_ANOMALY":84.744,"EPHEMERIS_TYPE":0,"NORAD_CAT_ID":66672,"ELEMENT_SET_NO":999,"REV_AT_EPOCH":3411,"BSTAR":0.000085532,"MEAN_MOTION_DOT":0.00001679,"MEAN_MOTION_DDOT":0},{"OBJECT_NAME":"BRO-20","OBJECT_ID":"2025-276J","EPOCH":"2026-07-11T17:52:57.777024","CLASSIFICATION_TYPE":"U","MEAN_MOTION":15.18314671,"ECCENTRICITY":0.0004661,"INCLINATION":97.4165,"RA_OF_ASC_NODE":265.368,"ARG_OF_PERICENTER":279.3755,"MEAN_ANOMALY":80.6952,"EPHEMERIS_TYPE":0,"NORAD_CAT_ID":66674,"ELEMENT_SET_NO":999,"REV_AT_EPOCH":3412,"BSTAR":0.000096617,"MEAN_MOTION_DOT":0.00001915,"MEAN_MOTION_DDOT":0},{"OBJECT_NAME":"BRO-19","OBJECT_ID":"2026-067G","EPOCH":"2026-07-11T19:40:50.496096","CLASSIFICATION_TYPE":"U","MEAN_MOTION":15.18975385,"ECCENTRICITY":0.000237,"INCLINATION":97.4491,"RA_OF_ASC_NODE":150.9265,"ARG_OF_PERICENTER":111.67,"MEAN_ANOMALY":248.4787,"EPHEMERIS_TYPE":0,"NORAD_CAT_ID":68422,"ELEMENT_SET_NO":999,"REV_AT_EPOCH":1568,"BSTAR":0.00010819,"MEAN_MOTION_DOT":0.00002194,"MEAN_MOTION_DDOT":0},{"OBJECT_NAME":"BRO-21","OBJECT_ID":"2026-100AD","EPOCH":"2026-07-11T15:44:10.654368","CLASSIFICATION_TYPE":"U","MEAN_MOTION":15.21609012,"ECCENTRICITY":0.0007205,"INCLINATION":97.402,"RA_OF_ASC_NODE":90.1493,"ARG_OF_PERICENTER":342.6742,"MEAN_ANOMALY":17.4247,"EPHEMERIS_TYPE":0,"NORAD_CAT_ID":69007,"ELEMENT_SET_NO":999,"REV_AT_EPOCH":1052,"BSTAR":0.000067437,"MEAN_MOTION_DOT":0.00001453,"MEAN_MOTION_DDOT":0},{"OBJECT_NAME":"BRO-22","OBJECT_ID":"2026-132C","EPOCH":"2026-07-11T15:19:09.513984","CLASSIFICATION_TYPE":"U","MEAN_MOTION":14.99799209,"ECCENTRICITY":0.0016174,"INCLINATION":97.6832,"RA_OF_ASC_NODE":256.005,"ARG_OF_PERICENTER":193.6747,"MEAN_ANOMALY":166.404,"EPHEMERIS_TYPE":0,"NORAD_CAT_ID":69504,"ELEMENT_SET_NO":999,"REV_AT_EPOCH":444,"BSTAR":0.00005461,"MEAN_MOTION_DOT":0.00000617,"MEAN_MOTION_DDOT":0}]}
